0 SL-8 R/B
1 24773U 97017B   13282.14407049 -.00000033  00000-0 -51543-4 0  5167
2 24773 082.9182 291.9692 0025743 090.9075 312.4533 13.73449072825987
0 SL-8 R/B
1 24773U 97017B   13283.47972748 -.00000022  00000-0 -40505-4 0  5172
2 24773 082.9182 290.9790 0025717 087.5198 076.1717 13.73449193826167
0 SL-8 R/B
1 24773U 97017B   13286.60733324 -.00000016  00000-0 -34159-4 0  5198
2 24773 082.9183 288.6600 0025626 079.2155 059.9657 13.73449496826597
0 SL-8 R/B
1 24773U 97017B   13287.62705333 -.00000014  00000-0 -30994-4 0  5203
2 24773 082.9183 287.9038 0025587 076.5293 061.7383 13.73449452826738
0 SL-8 R/B
1 24773U 97017B   13289.13809385 -.00000001  00000-0 -17401-4 0  5218
2 24773 082.9184 286.7833 0025517 072.5510 332.7312 13.73449368826942
0 SL-8 R/B
1 24773U 97017B   13290.15860204  .00000017  00000-0  19753-5 0  5228
2 24773 082.9185 286.0266 0025503 069.7871 338.4768 13.73449370827086
0 SL-8 R/B
1 24773U 97017B   13291.42068036  .00000012  00000-0 -32201-5 0  5232
2 24773 082.9188 285.0911 0025554 066.1658 098.8308 13.73449472827254
0 SL-8 R/B
1 24773U 97017B   13292.51060910  .00000014  00000-0 -10539-5 0  5249
2 24773 082.9190 284.2830 0025495 063.2683 087.7607 13.73449379827400
0 SL-8 R/B
1 24773U 97017B   13293.53018102  .00000025  00000-0  10044-4 0  5250
2 24773 082.9191 283.5271 0025443 060.5364 088.8471 13.73449322827545
0 SL-8 R/B
1 24773U 97017B   13295.49710682  .00000045  00000-0  31390-4 0  5269
2 24773 082.9192 282.0689 0025364 055.2492 093.9675 13.73449279827812
